IRIDIUM 166             
1 43570U 18061B   24032.49094482  .00000281  00000+0  93264-4 0  9994
2 43570  86.3928  58.9410 0001831  93.5556 266.5849 14.34221466289170
IRIDIUM 158             
1 43571U 18061C   24032.52900681  .00000333  00000+0  11195-3 0  9996
2 43571  86.3936  58.9340 0002875 107.8084 252.3426 14.34209223289155
IRIDIUM 165             
1 43572U 18061D   24032.48460603  .00000316  00000+0  10577-3 0  9991
2 43572  86.3929  58.9827 0002128 101.0958 259.0477 14.34221066289165
IRIDIUM 155             
1 43573U 18061E   24032.44654959  .00000311  00000+0  10411-3 0  9999
2 43573  86.3926  58.9105 0002085  86.9662 273.1772 14.34220759289126
IRIDIUM 154             
1 43574U 18061F   24032.49729498 -.00000037  00000+0 -20131-4 0  9994
2 43574  86.3926  58.9805 0002295  91.0423 269.1036 14.34218725289183
IRIDIUM 163             
1 43575U 18061G   24032.47826610  .00000271  00000+0  89720-4 0  9994
2 43575  86.3927  58.9311 0002285  89.4027 270.7431 14.34216952289151
IRIDIUM 156             
1 43576U 18061H   24032.45289266  .00000273  00000+0  90291-4 0  9990
2 43576  86.3928  58.9477 0002005  96.5895 263.5529 14.34220356289148
IRIDIUM 164             
1 43577U 18061J   24032.50363242  .00000274  00000+0  90926-4 0  9990
2 43577  86.3929  58.9532 0002235  98.5252 261.6197 14.34220544289190
